[{"OBJECT_NAME":"JILIN-01 KUANFU 02B 4","OBJECT_ID":"2024-169D","EPOCH":"2026-03-09T23:04:43.463424","MEAN_MOTION":15.0922271,"ECCENTRICITY":0.00080501,"INCLINATION":97.5522,"RA_OF_ASC_NODE":159.355,"ARG_OF_PERICENTER":260.1533,"MEAN_ANOMALY":99.8787,"EPHEMERIS_TYPE":0,"CLASSIFICATION_TYPE":"U","NORAD_CAT_ID":61192,"ELEMENT_SET_NO":999,"REV_AT_EPOCH":8086,"BSTAR":0.00035789888,"MEAN_MOTION_DOT":5.634e-5,"MEAN_MOTION_DDOT":0},{"OBJECT_NAME":"COSMOS 2292","OBJECT_ID":"1994-061A","EPOCH":"2026-03-09T21:53:12.387552","MEAN_MOTION":13.70280339,"ECCENTRICITY":0.08227551,"INCLINATION":82.9767,"RA_OF_ASC_NODE":346.3461,"ARG_OF_PERICENTER":72.9828,"MEAN_ANOMALY":295.9747,"EPHEMERIS_TYPE":0,"CLASSIFICATION_TYPE":"U","NORAD_CAT_ID":23278,"ELEMENT_SET_NO":999,"REV_AT_EPOCH":54440,"BSTAR":0.00037499431,"MEAN_MOTION_DOT":4.63e-5,"MEAN_MOTION_DDOT":0}]
